[{"OBJECT_NAME":"STARLINK-5476","OBJECT_ID":"2023-094AS","EPOCH":"2026-03-09T23:19:37.414848","MEAN_MOTION":15.02881176,"ECCENTRICITY":0.00018758,"INCLINATION":43.0065,"RA_OF_ASC_NODE":15.6796,"ARG_OF_PERICENTER":298.9016,"MEAN_ANOMALY":61.1638,"EPHEMERIS_TYPE":0,"CLASSIFICATION_TYPE":"U","NORAD_CAT_ID":57258,"ELEMENT_SET_NO":999,"REV_AT_EPOCH":14731,"BSTAR":0.0029468621,"MEAN_MOTION_DOT":0.00040201,"MEAN_MOTION_DDOT":0},{"OBJECT_NAME":"CHAMRAN-1","OBJECT_ID":"2024-165B","EPOCH":"2026-03-09T21:50:33.228384","MEAN_MOTION":15.10235792,"ECCENTRICITY":0.0045019,"INCLINATION":64.0789,"RA_OF_ASC_NODE":8.4365,"ARG_OF_PERICENTER":310.8781,"MEAN_ANOMALY":48.8437,"EPHEMERIS_TYPE":0,"CLASSIFICATION_TYPE":"U","NORAD_CAT_ID":61072,"ELEMENT_SET_NO":999,"REV_AT_EPOCH":8166,"BSTAR":0.0004432,"MEAN_MOTION_DOT":7.263e-5,"MEAN_MOTION_DDOT":0}]
